STARLINK-1783
1 26686C 20073S   21325.15728309  .00001993  00000-0  13357-3 0  3257
2 26686  53.0533 102.5206 0001344  75.3327 214.3787 15.06384356    10
